METEOSAT-5 (MOP-2)      
1 21140U 91015B   08259.39429344 -.00000027  00000-0  10000-3 0  4760
2 21140  10.3063  51.9872 0006453 125.2055 234.9726  0.98450497 66374
METEOSAT-6 (MOP-3)      
1 22912U 93073B   08259.73905332 -.00000013  00000-0  10000-3 0  6912
2 22912   7.7164  63.0794 0000587 177.0624  88.3976  1.00269750 52715
HIMAWARI-5 (GMS-5)      
1 23522U 95011B   08259.87917335 -.00000237  00000-0  10000-3 0  9275
2 23522   6.8544  66.0652 0005921 331.4522  28.7347  0.99405179 49216
GOES 10                 
1 24786U 97019A   08259.23503508 -.00000282  00000-0  10000-3 0  5581
2 24786   2.9380  78.1066 0002502 130.4874 170.9977  1.00276388 41746
ORBVIEW 2 (SEASTAR)     
1 24883U 97037A   08260.41418968  .00000027  00000-0  15505-4 0  4745
2 24883  98.3142  17.0938 0001602  11.3943 348.7285 14.59954563592499
METEOSAT-7              
1 24932U 97049B   08260.66842706  .00000071  00000-0  10000-3 0  4306
2 24932   4.5164  72.9370 0000095  50.4728 170.5651  1.00273679 40442
NOAA 15                 
1 25338U 98030A   08260.37463634  .00000120  00000-0  70084-4 0  6222
2 25338  98.5619 249.9492 0011290 131.4166 228.8025 14.24725090537786
GOES 11                 
1 26352U 00022A   08260.45726233  .00000091  00000-0  10000-3 0  9769
2 26352   0.2569 261.9965 0006052 312.4677 170.4317  1.00271773 30669
FENGYUN 2B              
1 26382U 00032A   08258.34041958 -.00000268  00000-0  10000-3 0   883
2 26382   3.6438  75.9220 0003760 174.1722 186.2868  1.00096728 30108
NOAA 16                 
1 26536U 00055A   08260.37307771  .00000192  00000-0  12923-3 0   963
2 26536  99.1651 251.5835 0010243 334.9024  25.1652 14.12498006411641
GOES 12                 
1 26871U 01031A   08261.07134610 -.00000249  00000-0  10000-3 0  7233
2 26871   0.2190  89.7309 0003745  31.3791 186.2319  1.00276548 26266
FENGYUN 1D              
1 27431U 02024B   08260.02262799 -.00000247  00000-0 -11817-3 0  2515
2 27431  98.6094 255.4998 0016083 110.4460 249.8426 14.09272710326190
NOAA 17                 
1 27453U 02032A   08260.25640410  .00000014  00000-0  24655-4 0   910
2 27453  98.5263 322.2074 0011556 198.0703 162.0066 14.24002047323768
METEOSAT-8 (MSG-1)      
1 27509U 02040B   08259.83149591  .00000064  00000-0  10000-3 0  9256
2 27509   0.7078  44.4059 0001221 195.9838  63.3486  1.00275135 22246
KALPANA-1 (METSAT 1)    
1 27525U 02043A   08258.66863051 -.00000078  00000-0  10000-3 0  5736
2 27525   0.0224 154.5946 0006448 321.9624 192.1693  1.00272393 22039
INSAT-3A                
1 27714U 03013A   08257.80096471 -.00000260  00000-0  10000-3 0  2610
2 27714   0.0110 237.8418 0003801 231.5892 265.5509  1.00270638 19931
FENGYUN 2C              
1 28451U 04042A   08260.56796046 -.00000329  00000-0  00000+0 0  1580
2 28451   0.7055  78.5608 0000353 346.4827 239.8597  1.00275588 14305
HIMAWARI 6 (MTSAT-1R)   
1 28622U 05006A   08260.32637913 -.00000279  00000-0  10000-3 0  7903
2 28622   0.0528 337.4037 0001716  41.7991 234.0346  1.00270696 13007
NOAA 18                 
1 28654U 05018A   08260.23286743  .00000175  00000-0  12120-3 0  5785
2 28654  98.8722 200.0624 0015305  58.1432 302.1227 14.11193963171312
METEOSAT-9 (MSG-2)      
1 28912U 05049B   08260.15070159  .00000002  00000-0  10000-3 0  4119
2 28912   0.3488 212.0198 0001415 257.1237 301.2196  1.00267762 10103
MTSAT-2                 
1 28937U 06004A   08259.33521847 -.00000244  00000-0  10000-3 0  4581
2 28937   0.0282 265.2696 0001851 248.1141 106.9128  1.00268185  9473
FORMOSAT 3A             
1 29047U 06011A   08261.12414433 -.00000017  00000-0  98576-5 0  7693
2 29047  71.9796 217.0014 0053707 254.1075 105.4134 14.27069431128774
FORMOSAT 3B             
1 29048U 06011B   08260.17637561  .00000389  00000-0  17471-3 0  8041
2 29048  71.9699 134.7241 0045679 206.5947 153.2821 14.27056240131112
FORMOSAT 3C             
1 29049U 06011C   08260.12379180  .00000361  00000-0  16364-3 0  7451
2 29049  72.0210 282.3469 0037734 270.5288  89.1492 14.27070732126889
FORMOSAT 3D             
1 29050U 06011D   08260.72108240  .00001096  00000-0  26646-3 0   268
2 29050  72.0089 124.7553 0052933 177.3217 182.8186 14.53929865131495
FORMOSAT 3E             
1 29051U 06011E   08260.15526721  .00000372  00000-0  16522-3 0  8046
2 29051  72.0077 191.7641 0069105 139.3902 221.2408 14.27068145129479
FORMOSAT 3F             
1 29052U 06011F   08260.48285770  .00000359  00000-0  16273-3 0  8238
2 29052  72.0345 252.2055 0042981 241.5982 118.0809 14.27084020127822
GOES 13                 
1 29155U 06018A   08260.48494891 -.00000088  00000-0  10000-3 0  4828
2 29155   0.3951  84.6135 0001981 146.1668 194.5524  1.00274434  8519
METOP-A                 
1 29499U 06044A   08260.22928453 -.00000146  00000-0 -46686-4 0  5980
2 29499  98.7140 318.1890 0000959 101.5196 258.6116 14.21484689 99093
FENGYUN 2D              
1 29640U 06053A   08259.71054698 -.00000197  00000-0  10000-3 0  4705
2 29640   0.9742 259.2804 0000724  21.4564  56.3224  1.00279240  6542
FENGYUN 3A              
1 32958U 08026A   08260.15816202  .00000167  00000-0  10000-3 0  1062
2 32958  98.8045 327.8022 0000566 106.1380 253.9833 14.19570138 15900
